{
  "type": "FeatureCollection",
  "features": [
    {
      "type": "Feature",
      "properties": {
        "norad_id": 54741,
        "name": "GALAXY 35 (G-35)",
        "group": "intelsat",
        "lat": -0.0006039206544581948,
        "lon": -29.57771494117747,
        "alt_km": 35782.033708660354,
        "timestamp": "2025-12-14T22:38:40.427426+00:00",
        "meta_object_name": "GALAXY 35 (G-35)",
        "meta_object_id": "2022-170A",
        "meta_epoch": "2025-12-14T06:07:39.360288",
        "meta_mean_motion": 1.00269197,
        "meta_eccentricity": 0.00022797,
        "meta_inclination": 0.0154,
        "meta_ra_of_asc_node": 330.0924,
        "meta_arg_of_pericenter": 300.2921,
        "meta_mean_anomaly": 171.599,
        "meta_ephemeris_type": 0,
        "meta_classification_type": "U",
        "meta_norad_cat_id": 54741,
        "meta_element_set_no": 999,
        "meta_rev_at_epoch": 1103,
        "meta_bstar": 0,
        "meta_mean_motion_dot": 0,
        "meta_mean_motion_ddot": 0,
        "tle_line1": "1 54741U 22170A   25348.25531667  .00000000  00000+0  00000+0 0  9998",
        "tle_line2": "2 54741   0.0154 330.0924 0002279 300.2921 171.5990  1.00269197 11033"
      },
      "geometry": {
        "type": "Point",
        "coordinates": [
          -29.57771494117747,
          -0.0006039206544581948
        ]
      }
    },
    {
      "type": "Feature",
      "properties": {
        "norad_id": 54742,
        "name": "GALAXY 36 (G-36)",
        "group": "intelsat",
        "lat": -0.017171161801242795,
        "lon": -25.479665760919563,
        "alt_km": 35784.72555351456,
        "timestamp": "2025-12-14T22:38:40.427439+00:00",
        "meta_object_name": "GALAXY 36 (G-36)",
        "meta_object_id": "2022-170B",
        "meta_epoch": "2025-12-14T06:08:54.239712",
        "meta_mean_motion": 1.00272091,
        "meta_eccentricity": 3.41e-05,
        "meta_inclination": 0.0392,
        "meta_ra_of_asc_node": 133.5892,
        "meta_arg_of_pericenter": 177.3065,
        "meta_mean_anomaly": 135.5126,
        "meta_ephemeris_type": 0,
        "meta_classification_type": "U",
        "meta_norad_cat_id": 54742,
        "meta_element_set_no": 999,
        "meta_rev_at_epoch": 1091,
        "meta_bstar": 0,
        "meta_mean_motion_dot": -1.67e-06,
        "meta_mean_motion_ddot": 0,
        "tle_line1": "1 54742U 22170B   25348.25618333 -.00000167  00000+0  00000+0 0  9990",
        "tle_line2": "2 54742   0.0392 133.5892 0000341 177.3065 135.5126  1.00272091 10912"
      },
      "geometry": {
        "type": "Point",
        "coordinates": [
          -25.479665760919563,
          -0.017171161801242795
        ]
      }
    },
    {
      "type": "Feature",
      "properties": {
        "norad_id": 57493,
        "name": "GALAXY 37 (G-37)",
        "group": "intelsat",
        "lat": -0.026049262217142134,
        "lon": -63.470776121519236,
        "alt_km": 35778.185671317005,
        "timestamp": "2025-12-14T22:38:40.427450+00:00",
        "meta_object_name": "GALAXY 37 (G-37)",
        "meta_object_id": "2023-112A",
        "meta_epoch": "2025-12-14T05:12:33.306624",
        "meta_mean_motion": 1.00272342,
        "meta_eccentricity": 0.00020674,
        "meta_inclination": 0.0189,
        "meta_ra_of_asc_node": 46.7489,
        "meta_arg_of_pericenter": 221.3528,
        "meta_mean_anomaly": 126.1788,
        "meta_ephemeris_type": 0,
        "meta_classification_type": "U",
        "meta_norad_cat_id": 57493,
        "meta_element_set_no": 999,
        "meta_rev_at_epoch": 868,
        "meta_bstar": 0,
        "meta_mean_motion_dot": 6.5e-07,
        "meta_mean_motion_ddot": 0,
        "tle_line1": "1 57493U 23112A   25348.21705216  .00000065  00000+0  00000+0 0  9992",
        "tle_line2": "2 57493   0.0189  46.7489 0002067 221.3528 126.1788  1.00272342  8680"
      },
      "geometry": {
        "type": "Point",
        "coordinates": [
          -63.470776121519236,
          -0.026049262217142134
        ]
      }
    }
  ]
}